TIANMU-1 08             
1 57400U 23101B   26066.00237819  .00000346  00000+0  14775-4 0  9993
2 57400  97.2717 118.7901 0006380 134.2174 225.9592 15.29204229146020
STARLINK-34114          
1 63905U 25095R   26067.38254070  .00038318  00000+0  13938-2 0  9992
2 63905  43.0021 183.9699 0000894 231.7805 128.2966 15.27602250 47574
